OBJECT_NAME,OBJECT_ID,EPOCH,MEAN_MOTION,ECCENTRICITY,INCLINATION,RA_OF_ASC_NODE,ARG_OF_PERICENTER,MEAN_ANOMALY,EPHEMERIS_TYPE,CLASSIFICATION_TYPE,NORAD_CAT_ID,ELEMENT_SET_NO,REV_AT_EPOCH,BSTAR,MEAN_MOTION_DOT,MEAN_MOTION_DDOT
ASTROCAST-0102,2021-006CD,2024-01-20T02:42:32.613408,15.23693516,.0009509,97.3675,75.7219,58.7251,301.4916,0,U,47488,999,16543,.82811E-3,.19865E-3,0
LEMUR-2-RUAIRI-EILIDH,2021-006DC,2024-01-20T17:39:10.775232,15.60645058,.0001729,97.3553,86.8794,53.2888,306.8528,0,U,47511,999,16627,.19378E-2,.163279E-2,0
ASTROCAST-0104,2021-006DK,2024-01-20T03:39:45.590400,15.22867282,.0009047,97.3713,75.9512,53.3540,306.8527,0,U,47519,999,16543,.46791E-3,.10909E-3,0
FLOCK 4S-29,2021-006DL,2024-01-20T15:02:49.225632,15.58171019,.0004115,97.3459,85.3462,17.0486,343.0907,0,U,47520,999,16618,.17525E-2,.134033E-2,0
FLOCK 4S-10,2021-006DP,2024-01-20T03:28:14.452608,15.38797430,.0005885,97.3583,83.0848,45.3755,314.7970,0,U,47523,999,16596,.70513E-3,.27043E-3,0
FLOCK 4S-7,2021-006DT,2024-01-20T17:10:18.322176,15.38805650,.0005479,97.3530,83.2246,42.3141,317.8526,0,U,47527,999,16701,.80942E-3,.31077E-3,0
LEMUR-2-CHANTAL,2021-006DV,2024-01-20T16:59:20.360256,15.45689015,.0004649,97.3574,84.1237,30.8374,329.3148,0,U,47529,999,16704,.13542E-2,.65753E-3,0
HIBER-4,2021-006EB,2024-01-20T14:42:22.003488,15.38141272,.0007374,97.3500,81.0180,37.2515,322.9241,0,U,47541,999,16591,.10919E-2,.41124E-3,0
ARKTIKA-M 1,2021-016A,2024-01-19T05:02:14.993664,2.00601347,.6900697,63.1432,168.7183,269.0727,18.1192,0,U,47719,999,2113,0,.182E-5,0
STARLINK-2342,2021-021Z,2024-01-20T18:54:11.723616,15.06414099,.0001236,53.0533,173.2450,94.2915,265.8215,0,U,47883,999,15824,.16771E-3,.2218E-4,0
GRUS-1B,2021-022C,2024-01-20T18:15:42.243840,14.95487854,.0019067,97.6445,277.5125,32.9662,327.2744,0,U,47934,999,15442,.24465E-3,.2661E-4,0
2021-022F,2021-022F,2024-01-20T19:15:00.749664,15.13758001,.0013054,97.4782,279.1448,302.4213,57.5755,0,U,47937,999,15598,.47899E-3,.8592E-4,0
2021-022G,2021-022G,2024-01-20T19:07:59.799360,15.19687373,.0014279,97.4749,280.0206,304.8867,55.1025,0,U,47938,999,15606,.92517E-3,.19767E-3,0
2021-022H,2021-022H,2024-01-20T18:30:11.323296,15.25954395,.0009663,97.4797,283.7652,278.1576,81.8566,0,U,47939,999,15626,.11565E-2,.2975E-3,0
WILDTRACKCUBE-SIMBA,2021-022K,2024-01-20T18:16:05.981376,15.16882371,.0015626,97.4779,279.2376,308.1348,51.8476,0,U,47941,999,15593,.70464E-3,.13867E-3,0
HIBER-3,2021-022L,2024-01-20T15:02:01.993344,15.22866790,.0012489,97.4746,281.2585,298.3503,61.6474,0,U,47942,999,15608,.10458E-2,.24534E-3,0
2021-022M,2021-022M,2024-01-20T19:45:15.987744,15.26018825,.0009818,97.4789,283.9545,277.1615,82.8507,0,U,47943,999,15614,.11748E-2,.30283E-3,0
ELSA-D,2021-022N,2024-01-20T16:01:12.223776,15.22102439,.0011875,97.4775,281.1439,293.5415,66.4573,0,U,47944,999,15608,.75603E-3,.17301E-3,0
UNISAT-7,2021-022P,2024-01-20T17:09:16.318080,15.14538220,.0013848,97.4763,278.9494,300.4803,59.5061,0,U,47945,999,15581,.52551E-3,.9647E-4,0
2021-022Q,2021-022Q,2024-01-20T19:29:53.846592,15.18718020,.0012824,97.4775,280.8680,291.1193,68.8671,0,U,47946,999,15607,.74772E-3,.15504E-3,0
NANOSATC-BR2,2021-022U,2024-01-20T19:17:16.474560,15.23456128,.0012901,97.4740,281.3286,300.9281,59.0687,0,U,47950,999,15610,.11437E-2,.27324E-3,0
CUBESX-SIRIUS-HSE,2021-022V,2024-01-20T19:37:44.730048,15.19385740,.0014773,97.4775,280.1605,304.5461,55.4378,0,U,47951,999,15600,.86789E-3,.18378E-3,0
CUBESX-HSE,2021-022W,2024-01-20T18:44:09.871584,15.19471167,.0014645,97.4777,280.1932,304.1741,55.8104,0,U,47952,999,15600,.9286E-3,.19719E-3,0
2021-022X,2021-022X,2024-01-20T19:05:50.841312,15.15590000,.0015908,97.4751,278.3712,310.6609,49.3239,0,U,47953,999,15563,.69301E-3,.13144E-3,0
KSU-CUBESAT,2021-022Y,2024-01-20T15:49:30.878688,15.21165984,.001379,97.4783,280.8661,302.0482,57.9414,0,U,47954,999,15575,.97822E-3,.21827E-3,0
CHALLENGE ONE,2021-022AA,2024-01-20T15:53:54.351168,15.19938507,.0015032,97.4784,280.1435,306.1638,53.8206,0,U,47956,999,15577,.95791E-3,.20627E-3,0
2021-022AC,2021-022AC,2024-01-20T19:15:07.291008,15.16093391,.0016081,97.4735,278.4033,309.9328,50.0491,0,U,47958,999,15472,.6834E-3,.13149E-3,0
GRBALPHA,2021-022AD,2024-01-20T19:41:39.460704,15.19566505,.0014534,97.4778,280.3544,304.2401,55.7456,0,U,47959,999,15483,.86279E-3,.18364E-3,0
ORBICRAFT-ZORKY,2021-022AE,2024-01-20T18:34:37.062912,15.20868473,.0013806,97.4817,281.1450,302.2177,57.7719,0,U,47960,999,15555,.93496E-3,.20675E-3,0
3B5GSAT (SATELIOT 1),2021-022AF,2024-01-20T06:24:14.846400,15.36960459,.0008725,97.4845,286.6019,281.1250,78.9013,0,U,47961,999,15516,.15827E-2,.57556E-3,0
