ASTROCAST-0102          
1 47488U 21006CD  24020.11287747  .00019865  00000+0  82811-3 0  9996
2 47488  97.3675  75.7219 0009509  58.7251 301.4916 15.23693516165436
LEMUR-2-RUAIRI-EILIDH   
1 47511U 21006DC  24020.73554138  .00163279  00000+0  19378-2 0  9998
2 47511  97.3553  86.8794 0001729  53.2888 306.8528 15.60645058166271
ASTROCAST-0104          
1 47519U 21006DK  24020.15261100  .00010909  00000+0  46791-3 0  9997
2 47519  97.3713  75.9512 0009047  53.3540 306.8527 15.22867282165430
FLOCK 4S-29             
1 47520U 21006DL  24020.62695863  .00134033  00000+0  17525-2 0  9995
2 47520  97.3459  85.3462 0004115  17.0486 343.0907 15.58171019166188
FLOCK 4S-10             
1 47523U 21006DP  24020.14461172  .00027043  00000+0  70513-3 0  9998
2 47523  97.3583  83.0848 0005885  45.3755 314.7970 15.38797430165969
FLOCK 4S-7              
1 47527U 21006DT  24020.71548984  .00031077  00000+0  80942-3 0  9991
2 47527  97.3530  83.2246 0005479  42.3141 317.8526 15.38805650167017
LEMUR-2-CHANTAL         
1 47529U 21006DV  24020.70787454  .00065753  00000+0  13542-2 0  9998
2 47529  97.3574  84.1237 0004649  30.8374 329.3148 15.45689015167049
HIBER-4                 
1 47541U 21006EB  24020.61275467  .00041124  00000+0  10919-2 0  9999
2 47541  97.3500  81.0180 0007374  37.2515 322.9241 15.38141272165918
ARKTIKA-M 1             
1 47719U 21016A   24019.20989576  .00000182  00000+0  00000+0 0  9999
2 47719  63.1432 168.7183 6900697 269.0727  18.1192  2.00601347 21135
STARLINK-2342           
1 47883U 21021Z   24020.78763569  .00002218  00000+0  16771-3 0  9992
2 47883  53.0533 173.2450 0001236  94.2915 265.8215 15.06414099158243
GRUS-1B                 
1 47934U 21022C   24020.76090560  .00002661  00000+0  24465-3 0  9993
2 47934  97.6445 277.5125 0019067  32.9662 327.2744 14.95487854154424
2021-022F               
1 47937U 21022F   24020.80209201  .00008592  00000+0  47899-3 0  9990
2 47937  97.4782 279.1448 0013054 302.4213  57.5755 15.13758001155985
2021-022G               
1 47938U 21022G   24020.79721990  .00019767  00000+0  92517-3 0  9996
2 47938  97.4749 280.0206 0014279 304.8867  55.1025 15.19687373156066
2021-022H               
1 47939U 21022H   24020.77096439  .00029750  00000+0  11565-2 0  9994
2 47939  97.4797 283.7652 0009663 278.1576  81.8566 15.25954395156262
WILDTRACKCUBE-SIMBA     
1 47941U 21022K   24020.76118034  .00013867  00000+0  70464-3 0  9998
2 47941  97.4779 279.2376 0015626 308.1348  51.8476 15.16882371155939
HIBER-3                 
1 47942U 21022L   24020.62641196  .00024534  00000+0  10458-2 0  9993
2 47942  97.4746 281.2585 0012489 298.3503  61.6474 15.22866790156084
2021-022M               
1 47943U 21022M   24020.82310171  .00030283  00000+0  11748-2 0  9993
2 47943  97.4789 283.9545 0009818 277.1615  82.8507 15.26018825156149
ELSA-D                  
1 47944U 21022N   24020.66750259  .00017301  00000+0  75603-3 0  9998
2 47944  97.4775 281.1439 0011875 293.5415  66.4573 15.22102439156088
UNISAT-7                
1 47945U 21022P   24020.71477220  .00009647  00000+0  52551-3 0  9990
2 47945  97.4763 278.9494 0013848 300.4803  59.5061 15.14538220155819
2021-022Q               
1 47946U 21022Q   24020.81242878  .00015504  00000+0  74772-3 0  9999
2 47946  97.4775 280.8680 0012824 291.1193  68.8671 15.18718020156074
NANOSATC-BR2            
1 47950U 21022U   24020.80366290  .00027324  00000+0  11437-2 0  9999
2 47950  97.4740 281.3286 0012901 300.9281  59.0687 15.23456128156109
CUBESX-SIRIUS-HSE       
1 47951U 21022V   24020.81787882  .00018378  00000+0  86789-3 0  9997
2 47951  97.4775 280.1605 0014773 304.5461  55.4378 15.19385740156001
CUBESX-HSE              
1 47952U 21022W   24020.78066981  .00019719  00000+0  92860-3 0  9991
2 47952  97.4777 280.1932 0014645 304.1741  55.8104 15.19471167156002
2021-022X               
1 47953U 21022X   24020.79572733  .00013144  00000+0  69301-3 0  9990
2 47953  97.4751 278.3712 0015908 310.6609  49.3239 15.15590000155637
KSU-CUBESAT             
1 47954U 21022Y   24020.65938517  .00021827  00000+0  97822-3 0  9998
2 47954  97.4783 280.8661 0013790 302.0482  57.9414 15.21165984155754
CHALLENGE ONE           
1 47956U 21022AA  24020.66243462  .00020627  00000+0  95791-3 0  9999
2 47956  97.4784 280.1435 0015032 306.1638  53.8206 15.19938507155770
2021-022AC              
1 47958U 21022AC  24020.80216772  .00013149  00000+0  68340-3 0  9992
2 47958  97.4735 278.4033 0016081 309.9328  50.0491 15.16093391154723
GRBALPHA                
1 47959U 21022AD  24020.82059561  .00018364  00000+0  86279-3 0  9991
2 47959  97.4778 280.3544 0014534 304.2401  55.7456 15.19566505154831
ORBICRAFT-ZORKY         
1 47960U 21022AE  24020.77404008  .00020675  00000+0  93496-3 0  9994
2 47960  97.4817 281.1450 0013806 302.2177  57.7719 15.20868473155556
3B5GSAT (SATELIOT 1)    
1 47961U 21022AF  24020.26683850  .00057556  00000+0  15827-2 0  9992
2 47961  97.4845 286.6019 0008725 281.1250  78.9013 15.36960459155163
